ONEWEB-0706             
1 61611U 24188T   25029.58335648  .00000013  00000+0  00000+0 0  9990
2 61611  87.9105 136.5949 0002400 255.2174 279.1534 13.25544506 15446
ONEWEB-0707             
1 61612U 24188U   25029.58335648  .00000013  00000+0  00000+0 0  9991
2 61612  87.9270 136.6088 0002607 349.4824 338.2430 13.24255143 15382
ONEWEB-0708             
1 61613U 24188V   25029.25001157  .00045046  00000+0  10630+0 0  9996
2 61613  87.8874 136.6658 0001349  62.3155 320.8665 13.23201196 15559
